[{"OBJECT_NAME":"ONEWEB-0593","OBJECT_ID":"2022-166T","EPOCH":"2026-06-26T17:18:24.069024","MEAN_MOTION":13.21824875,"ECCENTRICITY":0.0001906,"INCLINATION":87.9247,"RA_OF_ASC_NODE":242.0791,"ARG_OF_PERICENTER":96.0396,"MEAN_ANOMALY":264.0955,"EPHEMERIS_TYPE":0,"CLASSIFICATION_TYPE":"U","NORAD_CAT_ID":54659,"ELEMENT_SET_NO":999,"REV_AT_EPOCH":17280,"BSTAR":-0.00026604,"MEAN_MOTION_DOT":-9.7e-7,"MEAN_MOTION_DDOT":0},{"OBJECT_NAME":"ONEWEB-0594","OBJECT_ID":"2022-166U","EPOCH":"2026-06-26T10:31:26.830272","MEAN_MOTION":13.21828204,"ECCENTRICITY":0.0001989,"INCLINATION":87.9245,"RA_OF_ASC_NODE":242.1515,"ARG_OF_PERICENTER":102.5822,"MEAN_ANOMALY":257.5535,"EPHEMERIS_TYPE":0,"CLASSIFICATION_TYPE":"U","NORAD_CAT_ID":54660,"ELEMENT_SET_NO":999,"REV_AT_EPOCH":17278,"BSTAR":9.5314e-5,"MEAN_MOTION_DOT":5.2e-7,"MEAN_MOTION_DDOT":0},{"OBJECT_NAME":"ONEWEB-0595","OBJECT_ID":"2022-166V","EPOCH":"2026-06-26T17:13:33.416832","MEAN_MOTION":13.21824252,"ECCENTRICITY":0.0002224,"INCLINATION":87.9258,"RA_OF_ASC_NODE":242.0774,"ARG_OF_PERICENTER":103.0624,"MEAN_ANOMALY":257.0758,"EPHEMERIS_TYPE":0,"CLASSIFICATION_TYPE":"U","NORAD_CAT_ID":54661,"ELEMENT_SET_NO":999,"REV_AT_EPOCH":17279,"BSTAR":-0.00034005,"MEAN_MOTION_DOT":-1.27e-6,"MEAN_MOTION_DDOT":0},{"OBJECT_NAME":"ONEWEB-0596","OBJECT_ID":"2022-166W","EPOCH":"2026-06-26T14:48:12.981888","MEAN_MOTION":13.21827586,"ECCENTRICITY":0.0002131,"INCLINATION":87.9249,"RA_OF_ASC_NODE":242.1082,"ARG_OF_PERICENTER":100.0377,"MEAN_ANOMALY":260.0998,"EPHEMERIS_TYPE":0,"CLASSIFICATION_TYPE":"U","NORAD_CAT_ID":54662,"ELEMENT_SET_NO":999,"REV_AT_EPOCH":17278,"BSTAR":-0.00019025,"MEAN_MOTION_DOT":-6.6e-7,"MEAN_MOTION_DDOT":0},{"OBJECT_NAME":"ONEWEB-0597","OBJECT_ID":"2022-166X","EPOCH":"2026-06-26T16:10:34.547808","MEAN_MOTION":13.21826861,"ECCENTRICITY":0.0002005,"INCLINATION":87.9247,"RA_OF_ASC_NODE":242.0999,"ARG_OF_PERICENTER":94.8065,"MEAN_ANOMALY":265.3298,"EPHEMERIS_TYPE":0,"CLASSIFICATION_TYPE":"U","NORAD_CAT_ID":54663,"ELEMENT_SET_NO":999,"REV_AT_EPOCH":17279,"BSTAR":8.2906e-5,"MEAN_MOTION_DOT":4.7e-7,"MEAN_MOTION_DDOT":0},{"OBJECT_NAME":"ONEWEB-0600","OBJECT_ID":"2022-166Y","EPOCH":"2026-06-26T17:32:56.554368","MEAN_MOTION":13.21824513,"ECCENTRICITY":0.0001819,"INCLINATION":87.9247,"RA_OF_ASC_NODE":242.0798,"ARG_OF_PERICENTER":98.4366,"MEAN_ANOMALY":261.6974,"EPHEMERIS_TYPE":0,"CLASSIFICATION_TYPE":"U","NORAD_CAT_ID":54664,"ELEMENT_SET_NO":999,"REV_AT_EPOCH":17277,"BSTAR":-3.1979e-5,"MEAN_MOTION_DOT":0,"MEAN_MOTION_DDOT":0},{"OBJECT_NAME":"ONEWEB-0601","OBJECT_ID":"2022-166Z","EPOCH":"2026-06-26T17:20:50.903232","MEAN_MOTION":13.21689396,"ECCENTRICITY":0.0003887,"INCLINATION":87.9248,"RA_OF_ASC_NODE":242.0977,"ARG_OF_PERICENTER":76.9032,"MEAN_ANOMALY":283.2536,"EPHEMERIS_TYPE":0,"CLASSIFICATION_TYPE":"U","NORAD_CAT_ID":54665,"ELEMENT_SET_NO":999,"REV_AT_EPOCH":17296,"BSTAR":0.064167,"MEAN_MOTION_DOT":0.00026539,"MEAN_MOTION_DDOT":0},{"OBJECT_NAME":"ONEWEB-0602","OBJECT_ID":"2022-166AA","EPOCH":"2026-06-26T16:31:09.550272","MEAN_MOTION":13.21826886,"ECCENTRICITY":0.000177,"INCLINATION":87.9245,"RA_OF_ASC_NODE":242.1104,"ARG_OF_PERICENTER":98.8277,"MEAN_ANOMALY":261.3057,"EPHEMERIS_TYPE":0,"CLASSIFICATION_TYPE":"U","NORAD_CAT_ID":54666,"ELEMENT_SET_NO":999,"REV_AT_EPOCH":17280,"BSTAR":-0.00018649,"MEAN_MOTION_DOT":-6.4e-7,"MEAN_MOTION_DDOT":0},{"OBJECT_NAME":"ONEWEB-0603","OBJECT_ID":"2022-166AB","EPOCH":"2026-06-26T16:39:38.860992","MEAN_MOTION":13.21826844,"ECCENTRICITY":0.0001976,"INCLINATION":87.9255,"RA_OF_ASC_NODE":242.0671,"ARG_OF_PERICENTER":95.9055,"MEAN_ANOMALY":264.2304,"EPHEMERIS_TYPE":0,"CLASSIFICATION_TYPE":"U","NORAD_CAT_ID":54667,"ELEMENT_SET_NO":999,"REV_AT_EPOCH":17273,"BSTAR":-0.00012477,"MEAN_MOTION_DOT":-3.9e-7,"MEAN_MOTION_DDOT":0},{"OBJECT_NAME":"ONEWEB-0604","OBJECT_ID":"2022-166AC","EPOCH":"2026-06-26T16:22:39.574272","MEAN_MOTION":13.21828094,"ECCENTRICITY":0.0002064,"INCLINATION":87.9257,"RA_OF_ASC_NODE":242.0852,"ARG_OF_PERICENTER":100.4378,"MEAN_ANOMALY":259.6989,"EPHEMERIS_TYPE":0,"CLASSIFICATION_TYPE":"U","NORAD_CAT_ID":54668,"ELEMENT_SET_NO":999,"REV_AT_EPOCH":17269,"BSTAR":3.6481e-5,"MEAN_MOTION_DOT":2.8e-7,"MEAN_MOTION_DDOT":0},{"OBJECT_NAME":"ONEWEB-0605","OBJECT_ID":"2022-166AD","EPOCH":"2026-06-26T16:13:00.232032","MEAN_MOTION":13.21826822,"ECCENTRICITY":0.0002381,"INCLINATION":87.9248,"RA_OF_ASC_NODE":242.0991,"ARG_OF_PERICENTER":83.711,"MEAN_ANOMALY":276.4295,"EPHEMERIS_TYPE":0,"CLASSIFICATION_TYPE":"U","NORAD_CAT_ID":54669,"ELEMENT_SET_NO":999,"REV_AT_EPOCH":17276,"BSTAR":-0.00010924,"MEAN_MOTION_DOT":-3.2e-7,"MEAN_MOTION_DDOT":0},{"OBJECT_NAME":"ONEWEB-0606","OBJECT_ID":"2022-166AE","EPOCH":"2026-06-26T16:44:27.505248","MEAN_MOTION":13.21843698,"ECCENTRICITY":0.0002223,"INCLINATION":87.9246,"RA_OF_ASC_NODE":242.1069,"ARG_OF_PERICENTER":101.3023,"MEAN_ANOMALY":258.8361,"EPHEMERIS_TYPE":0,"CLASSIFICATION_TYPE":"U","NORAD_CAT_ID":54670,"ELEMENT_SET_NO":999,"REV_AT_EPOCH":17282,"BSTAR":0.0048073,"MEAN_MOTION_DOT":1.999e-5,"MEAN_MOTION_DDOT":0},{"OBJECT_NAME":"ONEWEB-0607","OBJECT_ID":"2022-166AF","EPOCH":"2026-06-26T17:45:03.295008","MEAN_MOTION":13.21824266,"ECCENTRICITY":0.000195,"INCLINATION":87.9254,"RA_OF_ASC_NODE":242.0705,"ARG_OF_PERICENTER":95.4762,"MEAN_ANOMALY":264.6594,"EPHEMERIS_TYPE":0,"CLASSIFICATION_TYPE":"U","NORAD_CAT_ID":54671,"ELEMENT_SET_NO":999,"REV_AT_EPOCH":17280,"BSTAR":-0.00015892,"MEAN_MOTION_DOT":-5.3e-7,"MEAN_MOTION_DDOT":0},{"OBJECT_NAME":"ONEWEB-0608","OBJECT_ID":"2022-166AG","EPOCH":"2026-06-26T14:16:41.666016","MEAN_MOTION":13.21828374,"ECCENTRICITY":0.0002069,"INCLINATION":87.9258,"RA_OF_ASC_NODE":242.0963,"ARG_OF_PERICENTER":83.47,"MEAN_ANOMALY":276.6669,"EPHEMERIS_TYPE":0,"CLASSIFICATION_TYPE":"U","NORAD_CAT_ID":54672,"ELEMENT_SET_NO":999,"REV_AT_EPOCH":17279,"BSTAR":0.00020177,"MEAN_MOTION_DOT":9.6e-7,"MEAN_MOTION_DDOT":0},{"OBJECT_NAME":"ONEWEB-0610","OBJECT_ID":"2022-166AH","EPOCH":"2026-06-26T17:25:40.511712","MEAN_MOTION":13.21824401,"ECCENTRICITY":0.0001815,"INCLINATION":87.9247,"RA_OF_ASC_NODE":242.0836,"ARG_OF_PERICENTER":80.4436,"MEAN_ANOMALY":279.6903,"EPHEMERIS_TYPE":0,"CLASSIFICATION_TYPE":"U","NORAD_CAT_ID":54673,"ELEMENT_SET_NO":999,"REV_AT_EPOCH":17271,"BSTAR":-9.8411e-5,"MEAN_MOTION_DOT":-2.8e-7,"MEAN_MOTION_DDOT":0},{"OBJECT_NAME":"ONEWEB-0611","OBJECT_ID":"2022-166AJ","EPOCH":"2026-06-26T17:15:57.506112","MEAN_MOTION":13.2182487,"ECCENTRICITY":0.0002132,"INCLINATION":87.9249,"RA_OF_ASC_NODE":242.0807,"ARG_OF_PERICENTER":101.1927,"MEAN_ANOMALY":258.9447,"EPHEMERIS_TYPE":0,"CLASSIFICATION_TYPE":"U","NORAD_CAT_ID":54674,"ELEMENT_SET_NO":999,"REV_AT_EPOCH":17270,"BSTAR":-0.00015943,"MEAN_MOTION_DOT":-5.3e-7,"MEAN_MOTION_DDOT":0},{"OBJECT_NAME":"ONEWEB-0612","OBJECT_ID":"2022-166AK","EPOCH":"2026-06-26T17:35:22.140960","MEAN_MOTION":13.21825244,"ECCENTRICITY":0.0002033,"INCLINATION":87.9259,"RA_OF_ASC_NODE":242.0746,"ARG_OF_PERICENTER":93.5365,"MEAN_ANOMALY":266.6002,"EPHEMERIS_TYPE":0,"CLASSIFICATION_TYPE":"U","NORAD_CAT_ID":54675,"ELEMENT_SET_NO":999,"REV_AT_EPOCH":17269,"BSTAR":1.9498e-5,"MEAN_MOTION_DOT":2.1e-7,"MEAN_MOTION_DDOT":0}]
